<?xml version="1.0" encoding="UTF-8"?>
<ndm xmlns:xsi="http://www.w3.org/2001/XMLSchema-instance" xsi:noNamespaceSchemaLocation="https://sanaregistry.org/r/ndmxml_unqualified/ndmxml-2.0.0-master-2.0.xsd">
<omm id="CCSDS_OMM_VERS" version="2.0">
<header><CREATION_DATE/><ORIGINATOR/></header><body><segment><metadata><OBJECT_NAME>ONEWEB-0414</OBJECT_NAME><OBJECT_ID>2021-132Y</OBJECT_ID><CENTER_NAME>EARTH</CENTER_NAME><REF_FRAME>TEME</REF_FRAME><TIME_SYSTEM>UTC</TIME_SYSTEM><MEAN_ELEMENT_THEORY>SGP4</MEAN_ELEMENT_THEORY></metadata><data><meanElements><EPOCH>2025-12-23T23:19:04.340064</EPOCH><MEAN_MOTION>13.18687212</MEAN_MOTION><ECCENTRICITY>.00019968</ECCENTRICITY><INCLINATION>87.9178</INCLINATION><RA_OF_ASC_NODE>10.2293</RA_OF_ASC_NODE><ARG_OF_PERICENTER>93.7030</ARG_OF_PERICENTER><MEAN_ANOMALY>266.4330</MEAN_ANOMALY></meanElements><tleParameters><EPHEMERIS_TYPE>0</EPHEMERIS_TYPE><CLASSIFICATION_TYPE>U</CLASSIFICATION_TYPE><NORAD_CAT_ID>50491</NORAD_CAT_ID><ELEMENT_SET_NO>999</ELEMENT_SET_NO><REV_AT_EPOCH>19853</REV_AT_EPOCH><BSTAR>.35968117E-4</BSTAR><MEAN_MOTION_DOT>.27E-6</MEAN_MOTION_DOT><MEAN_MOTION_DDOT>0</MEAN_MOTION_DDOT></tleParameters></data></segment></body></omm>
<omm id="CCSDS_OMM_VERS" version="2.0">
<header><CREATION_DATE/><ORIGINATOR/></header><body><segment><metadata><OBJECT_NAME>ONEWEB-0417</OBJECT_NAME><OBJECT_ID>2021-132Z</OBJECT_ID><CENTER_NAME>EARTH</CENTER_NAME><REF_FRAME>TEME</REF_FRAME><TIME_SYSTEM>UTC</TIME_SYSTEM><MEAN_ELEMENT_THEORY>SGP4</MEAN_ELEMENT_THEORY></metadata><data><meanElements><EPOCH>2025-12-23T18:03:10.108512</EPOCH><MEAN_MOTION>13.18687387</MEAN_MOTION><ECCENTRICITY>.0001747</ECCENTRICITY><INCLINATION>87.9176</INCLINATION><RA_OF_ASC_NODE>10.3071</RA_OF_ASC_NODE><ARG_OF_PERICENTER>98.8876</ARG_OF_PERICENTER><MEAN_ANOMALY>261.2454</MEAN_ANOMALY></meanElements><tleParameters><EPHEMERIS_TYPE>0</EPHEMERIS_TYPE><CLASSIFICATION_TYPE>U</CLASSIFICATION_TYPE><NORAD_CAT_ID>50492</NORAD_CAT_ID><ELEMENT_SET_NO>999</ELEMENT_SET_NO><REV_AT_EPOCH>19848</REV_AT_EPOCH><BSTAR>-.20637782E-3</BSTAR><MEAN_MOTION_DOT>-.68E-6</MEAN_MOTION_DOT><MEAN_MOTION_DDOT>0</MEAN_MOTION_DDOT></tleParameters></data></segment></body></omm>
<omm id="CCSDS_OMM_VERS" version="2.0">
<header><CREATION_DATE/><ORIGINATOR/></header><body><segment><metadata><OBJECT_NAME>ONEWEB-0418</OBJECT_NAME><OBJECT_ID>2021-132AA</OBJECT_ID><CENTER_NAME>EARTH</CENTER_NAME><REF_FRAME>TEME</REF_FRAME><TIME_SYSTEM>UTC</TIME_SYSTEM><MEAN_ELEMENT_THEORY>SGP4</MEAN_ELEMENT_THEORY></metadata><data><meanElements><EPOCH>2025-12-23T11:00:10.365984</EPOCH><MEAN_MOTION>13.18686218</MEAN_MOTION><ECCENTRICITY>.00017354</ECCENTRICITY><INCLINATION>87.9174</INCLINATION><RA_OF_ASC_NODE>10.3492</RA_OF_ASC_NODE><ARG_OF_PERICENTER>108.7955</ARG_OF_PERICENTER><MEAN_ANOMALY>251.3366</MEAN_ANOMALY></meanElements><tleParameters><EPHEMERIS_TYPE>0</EPHEMERIS_TYPE><CLASSIFICATION_TYPE>U</CLASSIFICATION_TYPE><NORAD_CAT_ID>50493</NORAD_CAT_ID><ELEMENT_SET_NO>999</ELEMENT_SET_NO><REV_AT_EPOCH>19850</REV_AT_EPOCH><BSTAR>.638325E-5</BSTAR><MEAN_MOTION_DOT>.15E-6</MEAN_MOTION_DOT><MEAN_MOTION_DDOT>0</MEAN_MOTION_DDOT></tleParameters></data></segment></body></omm>
<omm id="CCSDS_OMM_VERS" version="2.0">
<header><CREATION_DATE/><ORIGINATOR/></header><body><segment><metadata><OBJECT_NAME>ONEWEB-0419</OBJECT_NAME><OBJECT_ID>2021-132AB</OBJECT_ID><CENTER_NAME>EARTH</CENTER_NAME><REF_FRAME>TEME</REF_FRAME><TIME_SYSTEM>UTC</TIME_SYSTEM><MEAN_ELEMENT_THEORY>SGP4</MEAN_ELEMENT_THEORY></metadata><data><meanElements><EPOCH>2025-12-23T18:43:32.854368</EPOCH><MEAN_MOTION>13.18686364</MEAN_MOTION><ECCENTRICITY>.0001512</ECCENTRICITY><INCLINATION>87.9176</INCLINATION><RA_OF_ASC_NODE>10.2854</RA_OF_ASC_NODE><ARG_OF_PERICENTER>98.4759</ARG_OF_PERICENTER><MEAN_ANOMALY>261.6545</MEAN_ANOMALY></meanElements><tleParameters><EPHEMERIS_TYPE>0</EPHEMERIS_TYPE><CLASSIFICATION_TYPE>U</CLASSIFICATION_TYPE><NORAD_CAT_ID>50494</NORAD_CAT_ID><ELEMENT_SET_NO>999</ELEMENT_SET_NO><REV_AT_EPOCH>19846</REV_AT_EPOCH><BSTAR>-.12052462E-4</BSTAR><MEAN_MOTION_DOT>.8E-7</MEAN_MOTION_DOT><MEAN_MOTION_DDOT>0</MEAN_MOTION_DDOT></tleParameters></data></segment></body></omm>
<omm id="CCSDS_OMM_VERS" version="2.0">
<header><CREATION_DATE/><ORIGINATOR/></header><body><segment><metadata><OBJECT_NAME>ONEWEB-0420</OBJECT_NAME><OBJECT_ID>2021-132AC</OBJECT_ID><CENTER_NAME>EARTH</CENTER_NAME><REF_FRAME>TEME</REF_FRAME><TIME_SYSTEM>UTC</TIME_SYSTEM><MEAN_ELEMENT_THEORY>SGP4</MEAN_ELEMENT_THEORY></metadata><data><meanElements><EPOCH>2025-12-23T23:21:27.270720</EPOCH><MEAN_MOTION>13.18685596</MEAN_MOTION><ECCENTRICITY>.00018143</ECCENTRICITY><INCLINATION>87.9177</INCLINATION><RA_OF_ASC_NODE>10.2590</RA_OF_ASC_NODE><ARG_OF_PERICENTER>85.9222</ARG_OF_PERICENTER><MEAN_ANOMALY>274.2118</MEAN_ANOMALY></meanElements><tleParameters><EPHEMERIS_TYPE>0</EPHEMERIS_TYPE><CLASSIFICATION_TYPE>U</CLASSIFICATION_TYPE><NORAD_CAT_ID>50495</NORAD_CAT_ID><ELEMENT_SET_NO>999</ELEMENT_SET_NO><REV_AT_EPOCH>19848</REV_AT_EPOCH><BSTAR>.10633862E-3</BSTAR><MEAN_MOTION_DOT>.55E-6</MEAN_MOTION_DOT><MEAN_MOTION_DDOT>0</MEAN_MOTION_DDOT></tleParameters></data></segment></body></omm>
<omm id="CCSDS_OMM_VERS" version="2.0">
<header><CREATION_DATE/><ORIGINATOR/></header><body><segment><metadata><OBJECT_NAME>ONEWEB-0421</OBJECT_NAME><OBJECT_ID>2021-132AD</OBJECT_ID><CENTER_NAME>EARTH</CENTER_NAME><REF_FRAME>TEME</REF_FRAME><TIME_SYSTEM>UTC</TIME_SYSTEM><MEAN_ELEMENT_THEORY>SGP4</MEAN_ELEMENT_THEORY></metadata><data><meanElements><EPOCH>2025-12-23T10:27:07.479936</EPOCH><MEAN_MOTION>13.18686176</MEAN_MOTION><ECCENTRICITY>.00020946</ECCENTRICITY><INCLINATION>87.9174</INCLINATION><RA_OF_ASC_NODE>10.3588</RA_OF_ASC_NODE><ARG_OF_PERICENTER>93.1614</ARG_OF_PERICENTER><MEAN_ANOMALY>266.9758</MEAN_ANOMALY></meanElements><tleParameters><EPHEMERIS_TYPE>0</EPHEMERIS_TYPE><CLASSIFICATION_TYPE>U</CLASSIFICATION_TYPE><NORAD_CAT_ID>50496</NORAD_CAT_ID><ELEMENT_SET_NO>999</ELEMENT_SET_NO><REV_AT_EPOCH>19845</REV_AT_EPOCH><BSTAR>.16380265E-4</BSTAR><MEAN_MOTION_DOT>.19E-6</MEAN_MOTION_DOT><MEAN_MOTION_DDOT>0</MEAN_MOTION_DDOT></tleParameters></data></segment></body></omm>
<omm id="CCSDS_OMM_VERS" version="2.0">
<header><CREATION_DATE/><ORIGINATOR/></header><body><segment><metadata><OBJECT_NAME>ONEWEB-0424</OBJECT_NAME><OBJECT_ID>2021-132AE</OBJECT_ID><CENTER_NAME>EARTH</CENTER_NAME><REF_FRAME>TEME</REF_FRAME><TIME_SYSTEM>UTC</TIME_SYSTEM><MEAN_ELEMENT_THEORY>SGP4</MEAN_ELEMENT_THEORY></metadata><data><meanElements><EPOCH>2025-12-23T18:36:25.181280</EPOCH><MEAN_MOTION>13.18687301</MEAN_MOTION><ECCENTRICITY>.00013799</ECCENTRICITY><INCLINATION>87.9171</INCLINATION><RA_OF_ASC_NODE>10.2867</RA_OF_ASC_NODE><ARG_OF_PERICENTER>93.5611</ARG_OF_PERICENTER><MEAN_ANOMALY>266.5679</MEAN_ANOMALY></meanElements><tleParameters><EPHEMERIS_TYPE>0</EPHEMERIS_TYPE><CLASSIFICATION_TYPE>U</CLASSIFICATION_TYPE><NORAD_CAT_ID>50497</NORAD_CAT_ID><ELEMENT_SET_NO>999</ELEMENT_SET_NO><REV_AT_EPOCH>19852</REV_AT_EPOCH><BSTAR>.20888443E-3</BSTAR><MEAN_MOTION_DOT>.95E-6</MEAN_MOTION_DOT><MEAN_MOTION_DDOT>0</MEAN_MOTION_DDOT></tleParameters></data></segment></body></omm>
<omm id="CCSDS_OMM_VERS" version="2.0">
<header><CREATION_DATE/><ORIGINATOR/></header><body><segment><metadata><OBJECT_NAME>ONEWEB-0426</OBJECT_NAME><OBJECT_ID>2021-132AF</OBJECT_ID><CENTER_NAME>EARTH</CENTER_NAME><REF_FRAME>TEME</REF_FRAME><TIME_SYSTEM>UTC</TIME_SYSTEM><MEAN_ELEMENT_THEORY>SGP4</MEAN_ELEMENT_THEORY></metadata><data><meanElements><EPOCH>2025-12-23T23:07:11.255808</EPOCH><MEAN_MOTION>13.18686833</MEAN_MOTION><ECCENTRICITY>.00023185</ECCENTRICITY><INCLINATION>87.9175</INCLINATION><RA_OF_ASC_NODE>10.2407</RA_OF_ASC_NODE><ARG_OF_PERICENTER>104.2914</ARG_OF_PERICENTER><MEAN_ANOMALY>255.8476</MEAN_ANOMALY></meanElements><tleParameters><EPHEMERIS_TYPE>0</EPHEMERIS_TYPE><CLASSIFICATION_TYPE>U</CLASSIFICATION_TYPE><NORAD_CAT_ID>50498</NORAD_CAT_ID><ELEMENT_SET_NO>999</ELEMENT_SET_NO><REV_AT_EPOCH>19849</REV_AT_EPOCH><BSTAR>-.2132681E-3</BSTAR><MEAN_MOTION_DOT>-.71E-6</MEAN_MOTION_DOT><MEAN_MOTION_DDOT>0</MEAN_MOTION_DDOT></tleParameters></data></segment></body></omm>

</ndm>
