ONEWEB-0414             
1 50491U 21132Y   25357.97157801  .00000027  00000+0  35968-4 0  9991
2 50491  87.9178  10.2293 0001996  93.7030 266.4330 13.18687212198534
ONEWEB-0417             
1 50492U 21132Z   25357.75220033 -.00000068  00000+0 -20638-3 0  9990
2 50492  87.9176  10.3071 0001747  98.8876 261.2454 13.18687387198483
ONEWEB-0418             
1 50493U 21132AA  25357.45845331  .00000015  00000+0  63833-5 0  9998
2 50493  87.9174  10.3492 0001735 108.7955 251.3366 13.18686218198502
ONEWEB-0419             
1 50494U 21132AB  25357.78024137  .00000008  00000+0 -12052-4 0  9997
2 50494  87.9176  10.2854 0001512  98.4759 261.6545 13.18686364198466
ONEWEB-0420             
1 50495U 21132AC  25357.97323230  .00000055  00000+0  10634-3 0  9999
2 50495  87.9177  10.2590 0001814  85.9222 274.2118 13.18685596198480
ONEWEB-0421             
1 50496U 21132AD  25357.43550324  .00000019  00000+0  16380-4 0  9992
2 50496  87.9174  10.3588 0002094  93.1614 266.9758 13.18686176198453
ONEWEB-0424             
1 50497U 21132AE  25357.77529145  .00000095  00000+0  20888-3 0  9998
2 50497  87.9171  10.2867 0001379  93.5611 266.5679 13.18687301198523
ONEWEB-0426             
1 50498U 21132AF  25357.96332472 -.00000071  00000+0 -21327-3 0  9990
2 50498  87.9175  10.2407 0002318 104.2914 255.8476 13.18686833198499
